0 COSMOS 1934
1 18985U 88023A   13282.76745079  .00000033  00000-0  17988-4 0  7893
2 18985 082.9589 349.3476 0042618 129.5810 010.0575 13.76321604158855
0 COSMOS 1934
1 18985U 88023A   13283.78514287  .00000052  00000-0  37370-4 0  7901
2 18985 082.9587 348.5937 0042637 126.8319 012.3785 13.76321646158990
0 COSMOS 1934
1 18985U 88023A   13286.16750021  .00000076  00000-0  60970-4 0  7924
2 18985 082.9583 346.8289 0042694 120.3728 296.1785 13.76321640159327
0 COSMOS 1934
1 18985U 88023A   13287.17677381  .00000078  00000-0  63160-4 0  7930
2 18985 082.9580 346.0813 0042704 117.6444 256.7900 13.76321722159462
0 COSMOS 1934
1 18985U 88023A   13288.20248895  .00000086  00000-0  71117-4 0  7940
2 18985 082.9577 345.3214 0042714 114.8563 298.8797 13.76321976159605
0 COSMOS 1934
1 18985U 88023A   13289.29117877  .00000068  00000-0  53279-4 0  7955
2 18985 082.9575 344.5148 0042720 111.9113 292.9751 13.76322118159756
0 COSMOS 1934
1 18985U 88023A   13290.47180270  .00000066  00000-0  50885-4 0  7963
2 18985 082.9572 343.6400 0042716 108.7197 022.5720 13.76322280159916
0 COSMOS 1934
1 18985U 88023A   13292.20173013  .00000047  00000-0  32195-4 0  7977
2 18985 082.9569 342.3581 0042726 104.0330 313.7950 13.76322603160154
0 COSMOS 1934
1 18985U 88023A   13293.52544944  .00000048  00000-0  32617-4 0  7989
2 18985 082.9569 341.3771 0042719 100.4562 032.3823 13.76322668160337
0 COSMOS 1934
1 18985U 88023A   13294.54604008  .00000043  00000-0  27927-4 0  7994
2 18985 082.9568 340.6208 0042719 097.7077 049.0594 13.76322761160471
0 COSMOS 1934
1 18985U 88023A   13296.19517311  .00000051  00000-0  36120-4 0  8004
2 18985 082.9568 339.3988 0042697 093.2408 299.9752 13.76322851160703
